{
  "type": "FeatureCollection",
  "features": [
    {
      "type": "Feature",
      "properties": {
        "norad_id": 66815,
        "name": "STARLINK-35985",
        "group": "last-30-days",
        "lat": 38.54421959932881,
        "lon": -73.02103599996988,
        "alt_km": 409.997675068179,
        "timestamp": "2025-12-27T03:58:42.932237+00:00",
        "meta_object_name": "STARLINK-35985",
        "meta_object_id": "2025-278AA",
        "meta_epoch": "2025-12-26T20:00:01.999008",
        "meta_mean_motion": 15.50573842,
        "meta_eccentricity": 0.0001595,
        "meta_inclination": 43.0001,
        "meta_ra_of_asc_node": 167.6792,
        "meta_arg_of_pericenter": 271.0816,
        "meta_mean_anomaly": 145.0375,
        "meta_ephemeris_type": 0,
        "meta_classification_type": "U",
        "meta_norad_cat_id": 66815,
        "meta_element_set_no": 999,
        "meta_rev_at_epoch": 531,
        "meta_bstar": -0.00066216,
        "meta_mean_motion_dot": -0.00038988,
        "meta_mean_motion_ddot": 0,
        "tle_line1": "1 66815U 25278AA  25360.83335647 -.00038988  00000+0 -66216-3 0  9996",
        "tle_line2": "2 66815  43.0001 167.6792 0001595 271.0816 145.0375 15.50573842  5313"
      },
      "geometry": {
        "type": "Point",
        "coordinates": [
          -73.02103599996988,
          38.54421959932881
        ]
      }
    },
    {
      "type": "Feature",
      "properties": {
        "norad_id": 66816,
        "name": "STARLINK-36098",
        "group": "last-30-days",
        "lat": 40.87959369946152,
        "lon": -82.51118021010024,
        "alt_km": 409.58435431821545,
        "timestamp": "2025-12-27T03:58:42.932248+00:00",
        "meta_object_name": "STARLINK-36098",
        "meta_object_id": "2025-278AB",
        "meta_epoch": "2025-12-26T20:00:01.999008",
        "meta_mean_motion": 15.5058087,
        "meta_eccentricity": 0.0001527,
        "meta_inclination": 43.0001,
        "meta_ra_of_asc_node": 167.6988,
        "meta_arg_of_pericenter": 263.2472,
        "meta_mean_anomaly": 145.2021,
        "meta_ephemeris_type": 0,
        "meta_classification_type": "U",
        "meta_norad_cat_id": 66816,
        "meta_element_set_no": 999,
        "meta_rev_at_epoch": 506,
        "meta_bstar": -0.00079848,
        "meta_mean_motion_dot": -0.00046908,
        "meta_mean_motion_ddot": 0,
        "tle_line1": "1 66816U 25278AB  25360.83335647 -.00046908  00000+0 -79848-3 0  9993",
        "tle_line2": "2 66816  43.0001 167.6988 0001527 263.2472 145.2021 15.50580870  5068"
      },
      "geometry": {
        "type": "Point",
        "coordinates": [
          -82.51118021010024,
          40.87959369946152
        ]
      }
    },
    {
      "type": "Feature",
      "properties": {
        "norad_id": 66817,
        "name": "STARLINK-35995",
        "group": "last-30-days",
        "lat": 39.80878999117927,
        "lon": -77.68469157430137,
        "alt_km": 409.7968120756368,
        "timestamp": "2025-12-27T03:58:42.932257+00:00",
        "meta_object_name": "STARLINK-35995",
        "meta_object_id": "2025-278AC",
        "meta_epoch": "2025-12-26T20:00:01.999008",
        "meta_mean_motion": 15.50572679,
        "meta_eccentricity": 0.0001555,
        "meta_inclination": 43.0001,
        "meta_ra_of_asc_node": 167.6889,
        "meta_arg_of_pericenter": 272.372,
        "meta_mean_anomaly": 139.9132,
        "meta_ephemeris_type": 0,
        "meta_classification_type": "U",
        "meta_norad_cat_id": 66817,
        "meta_element_set_no": 999,
        "meta_rev_at_epoch": 522,
        "meta_bstar": -0.00057376,
        "meta_mean_motion_dot": -0.00033849,
        "meta_mean_motion_ddot": 0,
        "tle_line1": "1 66817U 25278AC  25360.83335647 -.00033849  00000+0 -57376-3 0  9996",
        "tle_line2": "2 66817  43.0001 167.6889 0001555 272.3720 139.9132 15.50572679  5226"
      },
      "geometry": {
        "type": "Point",
        "coordinates": [
          -77.68469157430137,
          39.80878999117927
        ]
      }
    },
    {
      "type": "Feature",
      "properties": {
        "norad_id": 66818,
        "name": "STARLINK-35994",
        "group": "last-30-days",
        "lat": 39.98904081599682,
        "lon": -129.98368760798903,
        "alt_km": 438.508686413129,
        "timestamp": "2025-12-27T03:58:42.932268+00:00",
        "meta_object_name": "STARLINK-35994",
        "meta_object_id": "2025-278AD",
        "meta_epoch": "2025-12-26T20:00:01.999008",
        "meta_mean_motion": 15.42436178,
        "meta_eccentricity": 0.0002089,
        "meta_inclination": 42.9997,
        "meta_ra_of_asc_node": 167.7609,
        "meta_arg_of_pericenter": 277.1863,
        "meta_mean_anomaly": 106.2396,
        "meta_ephemeris_type": 0,
        "meta_classification_type": "U",
        "meta_norad_cat_id": 66818,
        "meta_element_set_no": 999,
        "meta_rev_at_epoch": 522,
        "meta_bstar": -0.054772,
        "meta_mean_motion_dot": -0.02142039,
        "meta_mean_motion_ddot": 0,
        "tle_line1": "1 66818U 25278AD  25360.83335647 -.02142039  00000+0 -54772-1 0  9996",
        "tle_line2": "2 66818  42.9997 167.7609 0002089 277.1863 106.2396 15.42436178  5227"
      },
      "geometry": {
        "type": "Point",
        "coordinates": [
          -129.98368760798903,
          39.98904081599682
        ]
      }
    },
    {
      "type": "Feature",
      "properties": {
        "norad_id": 66819,
        "name": "STARLINK-35989",
        "group": "last-30-days",
        "lat": 39.19929862662597,
        "lon": -75.32968048593257,
        "alt_km": 409.81698826497086,
        "timestamp": "2025-12-27T03:58:42.932277+00:00",
        "meta_object_name": "STARLINK-35989",
        "meta_object_id": "2025-278AE",
        "meta_epoch": "2025-12-26T20:00:01.999008",
        "meta_mean_motion": 15.50580982,
        "meta_eccentricity": 0.0001464,
        "meta_inclination": 43.0001,
        "meta_ra_of_asc_node": 167.6842,
        "meta_arg_of_pericenter": 270.1588,
        "meta_mean_anomaly": 144.0409,
        "meta_ephemeris_type": 0,
        "meta_classification_type": "U",
        "meta_norad_cat_id": 66819,
        "meta_element_set_no": 999,
        "meta_rev_at_epoch": 522,
        "meta_bstar": -0.00083758,
        "meta_mean_motion_dot": -0.00049174,
        "meta_mean_motion_ddot": 0,
        "tle_line1": "1 66819U 25278AE  25360.83335647 -.00049174  00000+0 -83758-3 0  9999",
        "tle_line2": "2 66819  43.0001 167.6842 0001464 270.1588 144.0409 15.50580982  5224"
      },
      "geometry": {
        "type": "Point",
        "coordinates": [
          -75.32968048593257,
          39.19929862662597
        ]
      }
    },
    {
      "type": "Feature",
      "properties": {
        "norad_id": 66820,
        "name": "KOMPSAT-7",
        "group": "last-30-days",
        "lat": 78.40999573867478,
        "lon": 167.70224551920717,
        "alt_km": 559.3341460133015,
        "timestamp": "2025-12-27T03:58:42.932286+00:00",
        "meta_object_name": "KOMPSAT-7",
        "meta_object_id": "2025-279A",
        "meta_epoch": "2025-12-26T14:44:20.116608",
        "meta_mean_motion": 15.00851437,
        "meta_eccentricity": 0.00099888,
        "meta_inclination": 97.6455,
        "meta_ra_of_asc_node": 306.2415,
        "meta_arg_of_pericenter": 210.75,
        "meta_mean_anomaly": 149.314,
        "meta_ephemeris_type": 0,
        "meta_classification_type": "U",
        "meta_norad_cat_id": 66820,
        "meta_element_set_no": 999,
        "meta_rev_at_epoch": 373,
        "meta_bstar": 0.00024502475,
        "meta_mean_motion_dot": 3.059e-05,
        "meta_mean_motion_ddot": 0,
        "tle_line1": "1 66820U 25279A   25360.61412172  .00003059  00000+0  24502-3 0  9999",
        "tle_line2": "2 66820  97.6455 306.2415 0009988 210.7500 149.3140 15.00851437  3739"
      },
      "geometry": {
        "type": "Point",
        "coordinates": [
          167.70224551920717,
          78.40999573867478
        ]
      }
    },
    {
      "type": "Feature",
      "properties": {
        "norad_id": 66821,
        "name": "STARLINK-35966",
        "group": "last-30-days",
        "lat": -26.533551723562187,
        "lon": 148.42578452106164,
        "alt_km": 413.6043608742284,
        "timestamp": "2025-12-27T03:58:42.932296+00:00",
        "meta_object_name": "STARLINK-35966",
        "meta_object_id": "2025-280A",
        "meta_epoch": "2025-12-26T08:00:01.000224",
        "meta_mean_motion": 15.52498141,
        "meta_eccentricity": 0.000321,
        "meta_inclination": 70.0004,
        "meta_ra_of_asc_node": 161.183,
        "meta_arg_of_pericenter": 267.437,
        "meta_mean_anomaly": 93.1401,
        "meta_ephemeris_type": 0,
        "meta_classification_type": "U",
        "meta_norad_cat_id": 66821,
        "meta_element_set_no": 999,
        "meta_rev_at_epoch": 508,
        "meta_bstar": 0.00036399,
        "meta_mean_motion_dot": 0.00022271,
        "meta_mean_motion_ddot": 0,
        "tle_line1": "1 66821U 25280A   25360.33334491  .00022271  00000+0  36399-3 0  9992",
        "tle_line2": "2 66821  70.0004 161.1830 0003210 267.4370  93.1401 15.52498141  5082"
      },
      "geometry": {
        "type": "Point",
        "coordinates": [
          148.42578452106164,
          -26.533551723562187
        ]
      }
    }
  ]
}